{"type": "FeatureCollection", "features": [ {"type": "Feature", "properties": {"norad_id": 65590, "name": "COSMOS 2596 (708K)", "group": "gnss", "lat": -45.088619495923886, "lon": 169.83705798450023, "alt_km": 19125.387852885186, "timestamp": "2025-12-09T05:43:20.969058+00:00", "meta": {"OBJECT_NAME": "COSMOS 2596 (708K)", "OBJECT_ID": "2025-206B", "EPOCH": "2025-12-08T14:54:31.099392", "MEAN_MOTION": 2.13100258, "ECCENTRICITY": 0.0013997, "INCLINATION": 64.7466, "RA_OF_ASC_NODE": 321.6168, "ARG_OF_PERICENTER": 305.3279, "MEAN_ANOMALY": 172.7961, "EPHEMERIS_TYPE": 0, "CLASSIFICATION_TYPE": "U", "NORAD_CAT_ID": 65590, "ELEMENT_SET_NO": 999, "REV_AT_EPOCH": 185, "BSTAR": 0, "MEAN_MOTION_DOT": -5.1e-07, "MEAN_MOTION_DDOT": 0}, "tle": {"line1": "1 65590U 25206B   25342.62119328 -.00000051  00000+0  00000+0 0  9993", "line2": "2 65590  64.7466 321.6168 0013997 305.3279 172.7961  2.13100258  1854"}}, "geometry": {"type": "Point", "coordinates": [169.83705798450023, -45.088619495923886]}}]}